ORBCOMM FM06 [+]        
1 25118U 97084G   24020.90365078  .00002972  00000+0  94011-3 0  9998
2 25118  45.0153 304.8253 0000726 217.9521 251.6079 14.42027718367332
ORBCOMM FM07 [-]        
1 25119U 97084H   24020.86824710  .00002763  00000+0  87819-3 0  9993
2 25119  45.0149 305.4732 0001818 149.1196 210.9761 14.41960813367342
ORBCOMM FM03 [-]        
1 25158U 98007B   24020.93292925  .00001921  00000+0  75881-3 0  9998
2 25158 107.9726 163.4032 0045085  64.0937 296.4838 14.31735104350518
ORBCOMM FM04 [+]        
1 25159U 98007C   24020.94133307  .00001968  00000+0  77390-3 0  9996
2 25159 107.9712 166.2836 0040622  61.7513 298.7717 14.31991213350687
ORBCOMM FM17 [-]        
1 25413U 98046A   24020.77608189  .00002117  00000+0  82180-3 0  9998
2 25413  44.9930 155.9564 0003113 177.3378 182.7485 14.32722316329656
ORBCOMM FM18 [-]        
1 25414U 98046B   24020.56050985  .00002499  00000+0  91170-3 0  9993
2 25414  44.9940  86.3582 0006051 227.2534 132.7804 14.35350424330379
ORBCOMM FM19 [+]        
1 25415U 98046C   24020.61351795  .00002230  00000+0  82145-3 0  9998
2 25415  44.9949  87.3726 0004695 224.2781 290.3740 14.35195615330349
